
STARLINK-31179          
1 58750U 24005Y   24332.14743586  .00001420  00000+0  12017-3 0  9998
2 58750  43.0035 241.9081 0002110 257.7578 102.3028 15.02535691 50099
EINSTEIN PROBE          
1 58753U 24007A   24332.59276945  .00009546  00000+0  79728-3 0  9991
2 58753  28.9991 286.6929 0010435  43.9625 316.1801 14.96993515 48422
NANOFF B                
1 58755U 23185S   24332.56402329  .00008963  00000+0  61602-3 0  9997
2 58755  97.6014  36.7925 0015512  87.1291 273.1711 15.06070031 48392
TIANXING-1 02           
1 58756U 24008A   24332.60620577  .00093000  00000+0  75302-3 0  9993
2 58756  95.0951 322.6479 0013204 191.9781 168.1175 15.70394891 49808
YUNYAO-1 18             
1 58758U 24009A   24332.60233162  .00032018  00000+0  17082-2 0  9998
2 58758  49.9976  42.7019 0007758 167.5450 192.5694 15.14805137 48796
YUNYAO-1 19             
1 58759U 24009B   24332.58417798  .00030313  00000+0  16231-2 0  9996
2 58759  49.9897  43.1010 0008900 178.2301 181.8683 15.14696716 48799
YUNYAO-1 20             
1 58760U 24009C   24332.56168926  .00030814  00000+0  16496-2 0  9991
2 58760  49.9850  42.1034 0007672 190.8343 169.2444 15.14703077 48802
STARLINK-31127          
1 58765U 24011A   24332.31354569  .00012137  00000+0  86562-3 0  9992
2 58765  53.1584 344.6676 0001483  78.8207 281.2949 15.04931653 49288
STARLINK-31114          
1 58766U 24011B   24332.32953955 -.00001571  00000+0 -90445-4 0  9996
2 58766  53.1626 344.0612 0000451  70.7996 289.3042 15.04910457 49293
STARLINK-31140          
1 58767U 24011C   24332.31032204  .00000104  00000+0  26652-4 0  9999
2 58767  53.1610 344.6448 0001767  83.0430 277.0761 15.04927966 49285
STARLINK-31145          
1 58768U 24011D   24332.30709533  .00001897  00000+0  15179-3 0  9996
2 58768  53.1610 344.6239 0001578  93.4419 266.6751 15.04936755 49285
STARLINK-31146          
1 58769U 24011E   24332.30281821  .00001534  00000+0  12649-3 0  9999
2 58769  53.1609 344.5957 0001363 107.4329 252.6810 15.04932345 49280
STARLINK-31143          
1 58770U 24011F   24332.56524154  .00010710  00000+0  76622-3 0  9995
2 58770  53.1595 343.3913 0001613  99.2706 260.8466 15.04932878 49324
STARLINK-31135          
1 58771U 24011G   24332.29637411  .00000640  00000+0  64091-4 0  9996
2 58771  53.1587 344.5552 0002719  95.0353 265.0947 15.04929235 49287
STARLINK-31136          
1 58772U 24011H   24332.55880027 -.00000395  00000+0 -81845-5 0  9995
2 58772  53.1611 343.3467 0001717 119.7425 240.3735 15.04929975 49326
STARLINK-31073          
1 58773U 24011J   24332.02428759  .00000890  00000+0  81534-4 0  9990
2 58773  53.1590 345.7105 0002520  73.3677 286.7589 15.04927427 49247
STARLINK-31122          
1 58774U 24011K   24332.41956647 -.00002343  00000+0 -14438-3 0  9991
2 58774  53.1622 343.8962 0002177 149.5624 210.5492 15.04903853 49302
STARLINK-31123          
1 58775U 24011L   24332.01786370  .00005507  00000+0  40404-3 0  9997
2 58775  53.1616 345.6647 0001548 100.5119 259.6045 15.04896837 49247
STARLINK-31117          
1 58776U 24011M   24332.34669478  .00000099  00000+0  26300-4 0  9994
2 58776  53.1627 344.1591 0001744  99.0886 261.0301 15.04925417 49297
STARLINK-31132          
1 58777U 24011N   24331.93482978  .00000286  00000+0  21799-4 0  9992
2 58777  53.1611 296.2129 0001061  78.1878 281.9242 15.30185147 49928
STARLINK-31120          
1 58778U 24011P   24332.40237269  .00003407  00000+0  25723-3 0  9995
2 58778  53.1605 343.7978 0001913  94.8869 265.2339 15.04926333 49308
STARLINK-31142          
1 58779U 24011Q   24332.34025510 -.00000486  00000+0 -14609-4 0  9991
2 58779  53.1613 344.1237 0001647  88.5401 271.5778 15.04922657 49297
STARLINK-31099          
1 58781U 24011S   24332.32630498 -.00000639  00000+0 -25276-4 0  9991
2 58781  53.1620 344.0299 0001579  91.4639 268.6532 15.04926642 49298
STARLINK-31060          
1 58782U 24011T   24332.61323665  .00106194  00000+0  17696-2 0  9995
2 58782  53.1585 287.6460 0014042 101.9570 258.3015 15.51091512 50128
STARLINK-31047          
1 58783U 24011U   24332.31664822  .00000419  00000+0  48645-4 0  9999
2 58783  53.1603 343.9734 0001835  78.8553 281.2643 15.04924667 49291
STARLINK-31039          
1 58784U 24011V   24332.32308441  .00004511  00000+0  33414-3 0  9997
2 58784  53.1596 344.0079 0001655  98.3422 261.7755 15.04941756 49294
STARLINK-31034          
1 58785U 24011W   24331.89464356  .00038666  00000+0  12795-2 0  9993
2 58785  53.1606 294.5150 0001867 131.4959 228.6203 15.30982306 49830
STARLINK-31024          
1 58786U 24011X   24332.45269206 -.00000004  00000+0  19106-4 0  9995
2 58786  53.1601 343.3989 0001671  88.4427 271.6754 15.04922676 49310
STARLINK-31189          
1 58787U 24012A   24332.55863685 -.00004501  00000+0 -16254-3 0  9996
2 58787  43.0010 279.9695 0000594  38.5099 321.5794 15.25872545 49833
STARLINK-31185          
1 58788U 24012B   24332.55635721  .00001650  00000+0  72875-4 0  9997
2 58788  42.9957 279.9552 0000566 207.5737 152.5084 15.25920543 49836
STARLINK-31166          
1 58789U 24012C   24332.57206423 -.00000723  00000+0 -17772-4 0  9990
2 58789  43.0081 279.2041 0002755 275.9296  84.1241 15.25900957 49847
STARLINK-31187          
1 58790U 24012D   24332.55185052  .00005855  00000+0  23346-3 0  9996
2 58790  42.9978 279.9276 0001077  13.4620 346.6259 15.25911775 49835
STARLINK-31162          
1 58791U 24012E   24332.24265599 -.00001465  00000+0 -46218-4 0  9997
2 58791  42.9968 281.9017 0000532 151.2471 208.8409 15.25900724 49783
STARLINK-31184          
1 58793U 24012G   24332.54507623  .00038193  00000+0  14655-2 0  9993
2 58793  43.0009 279.8782 0000603 349.4113  10.6725 15.25838922 49837
STARLINK-31192          
1 58794U 24012H   24332.23796798  .00004966  00000+0  19939-3 0  9995
2 58794  43.0005 280.9861 0001893 212.7067 147.3667 15.25938150 49799
STARLINK-31161          
1 58795U 24012J   24332.27864380  .00007215  00000+0  28484-3 0  9998
2 58795  43.0013 281.3329 0002416 310.7228  49.3413 15.25974475 49793
STARLINK-31195          
1 58796U 24012K   24331.94913676  .00000512  00000+0  29425-4 0  9995
2 58796  42.9960 283.1543 0001248 242.5035 117.5689 15.25912958 49747
STARLINK-31193          
1 58797U 24012L   24332.27417447 -.00003411  00000+0 -12063-3 0  9990
2 58797  43.0034 281.3014 0002397 296.2887  63.7717 15.25895250 49796
STARLINK-31168          
1 58798U 24012M   24332.27190043  .00004108  00000+0  16675-3 0  9996
2 58798  43.0010 281.2742 0000671 216.9936 143.0869 15.25917237 49795
STARLINK-31191          
1 58800U 24012P   24332.26964992 -.00000322  00000+0 -24629-5 0  9997
2 58800  43.0018 281.2590 0000756 289.9848  70.0921 15.25920764 49791
STARLINK-31170          
1 58801U 24012Q   24331.87463016  .00006415  00000+0  25484-3 0  9990
2 58801  42.9950 283.4486 0001877 145.5602 214.5371 15.25914489 49749
STARLINK-31173          
1 58802U 24012R   24332.58334491  .00107827  00000+0  32539-2 0  9991
2 58802  43.0041 251.9127 0008357 224.7925 122.9553 15.33156731  5667
STARLINK-31141          
1 58803U 24012S   24332.26060464  .00001424  00000+0  64305-4 0  9997
2 58803  43.0045 281.1873 0001602 284.9710  75.0964 15.25897571 49792
STARLINK-31188          
1 58804U 24012T   24332.59016281 -.00011699  00000+0 -43825-3 0  9992
2 58804  43.0036 279.3636 0002286 283.7818  76.2779 15.25895687 49843
STARLINK-31138          
1 58806U 24012V   24332.56301353  .00001744  00000+0  76600-4 0  9994
2 58806  43.0085 279.1297 0002437 271.7826  88.2745 15.25877214 49846
STARLINK-31163          
1 58807U 24012W   24332.58109104 -.00040919  00000+0 -15624-2 0  9993
2 58807  43.0042 279.2874 0001949 263.7623  96.3006 15.25923861 49845
STARLINK-31174          
1 58808U 24012X   24332.57885488 -.00004588  00000+0 -16579-3 0  9992
2 58808  43.0016 279.2655 0001675 261.4927  98.5734 15.25882975 49844
STARLINK-31169          
1 58809U 24012Y   24332.57659029 -.00001415  00000+0 -44250-4 0  9997
2 58809  43.0082 279.2483 0002780 269.9744  90.0788 15.25887870 49840
NANOFF A                
1 58810U 23185T   24332.56402489  .00008777  00000+0  60353-3 0  9991
2 58810  97.6012  36.7724 0012964  86.2674 274.0035 15.06088160 47561
SORAYA                  
1 58817U 24015A   24332.59176566  .00000817  00000+0  27632-3 0  9998
2 58817  64.5140 286.3761 0042675 258.2153 101.4143 14.42308257 45047
2024-016A               
1 58820U 24016A   24332.60372324  .00024644  00000+0  97275-3 0  9999
2 58820  97.4936  46.2559 0010087 291.7276  68.2888 15.25481568 46920
2024-016B               
1 58821U 24016B   24332.60916916  .00031411  00000+0  13260-2 0  9992
2 58821  97.4947  45.4925 0010983 294.6830  65.3262 15.23159314 46871
2024-016C               
1 58822U 24016C   24332.56775226  .00019715  00000+0  92204-3 0  9994
2 58822  97.4930  44.9012 0011759 297.9274  62.0769 15.19743104 46838
2024-016D               
1 58823U 24016D   24332.56578189  .00029827  00000+0  13377-2 0  9992
2 58823  97.4899  44.9552 0011592 300.1862  59.8225 15.21100361 46844
STARLINK-31233          
1 58826U 24017A   24331.92651748 -.00002496  00000+0 -63147-4 0  9995
2 58826  53.1593 223.8489 0001151  71.9586 288.1542 15.34223244 48469
STARLINK-31271          
1 58827U 24017B   24332.08010956  .00000116  00000+0  14634-4 0  9996
2 58827  53.1605 223.3830 0001649 157.0548 203.0529 15.34217162 48367
STARLINK-31222          
1 58828U 24017C   24331.94517829 -.00001663  00000+0 -38390-4 0  9997
2 58828  53.1605 223.9584 0000896 113.5249 246.5847 15.34191526 48346
STARLINK-31258          
1 58829U 24017D   24332.40082803  .00000790  00000+0  34693-4 0  9999
2 58829  53.1610 221.8202 0001156  91.1587 268.9548 15.34217750 48415
